{
  "type": "FeatureCollection",
  "features": [
    {
      "type": "Feature",
      "properties": {
        "label": "Placeholder reconstructed range",
        "placeholder": true
      },
      "geometry": {
        "type": "Polygon",
        "coordinates": [
          [
            [
              -130,
              -20
            ],
            [
              140,
              -20
            ],
            [
              150,
              65
            ],
            [
              -120,
              65
            ],
            [
              -130,
              -20
            ]
          ]
        ]
      }
    }
  ]
}